name,address1,address2,address3,borough_name,website,os_addressbase_uprn,borough_code,ward_2018_name,ward_2018_code,longitude,latitude,easting,northing,runtime
Troubadour Wembley Park Theatre,Fulton Road,,,,,,,,,-0.2817884536759514,51.56085053698574,518981.3968192088,186168.5883621346,11/20/2022
"Assembly Rooms, Surbiton",138 Maple Road, Surbiton,NA,Kingston upon Thames,NA,128012933,E09000021,Grove,E05000408,-0.3084259634104032,51.396239372785324,517558.33868540253,167823.83715724957,11/20/2022
George Wood Theatre ,Goldsmith's College, University of London,NA,Lewisham,NA,100023000000,E09000023,New Cross,E05000449,-0.03771247917133249,51.47568861221421,536149.2429007317,177126.135651234,11/20/2022
Greenwich & Lewisham Young People's Theatre,The Tramshed, 51-53 Woolwich New Road,NA,Greenwich,http://www.glypt.co.uk/,100023000000,E09000011,Woolwich Riverside,E05000230,0.0663930789412,51.490012927078496,543331.8397495545,178917.5325181157,11/20/2022
Piccadilly Theatre,16 Denman St, Soho,NA,City of Westminster,https://www.piccadillytheatre.org/,100023000000,E09000033,West End,E05000649,-0.13698033213759486,51.51156528850338,529155.9161177657,180934.85208039073,11/20/2022
Bacon's College Theatre,Timber Pond Road, Rotherhithe,NA,Southwark,NA,200003000000,E09000028,Rotherhithe,E05011112,-0.04386252398093959,51.502875561798646,535641.52779856,180137.32080730412,11/20/2022
Courtyard Theatre,40 Pitfield Street,NA,NA,Hackney,NA,10091002509,E09000012,Hoxton West,E05009378,-0.08496288918437335,51.52838974209928,532715.5464827259,182898.55251109053,11/20/2022
Dugdale Arts Centre,39 London Road, Enfield,NA,Enfield,https://www.dugdalecentre.co.uk/,207007119,E09000010,Grange,E05000200,-0.08231178294641245,51.65033224944441,532543.662169537,196460.82503753813,11/20/2022
Bloomsbury Theatre,15 Gordon St, Bloomsbury,NA,Camden,https://www.thebloomsbury.com/,5007085,E09000007,Bloomsbury,E05000129,-0.1345818622860995,51.52583300840003,529281.8748037714,182525.38384192612,11/20/2022
Etcetera Theatre,265 Camden High St,NA,NA,Camden,http://www.etceteratheatre.com/,5007472,E09000007,Camden Town with Primrose Hill,E05000130,-0.14555410827825083,51.54065446198819,528479.1773583092,184153.89664371754,11/20/2022
KOKO,1A Camden High St, Kings Cross,NA,Camden,http://www.koko.uk.com/,5023741,E09000007,Regent's Park,E05000142,-0.14087645906001514,51.53549101727448,528818.0577995429,183588.0543965929,11/20/2022
Phoenix Theatre,110 Charing Cross Road,NA,NA,City of Westminster,NA,5037592,E09000033,West End,E05000649,-0.13131825786002932,51.51517556148136,529538.462405148,181346.26098318392,11/20/2022
Shaftesbury Theatre,210 Shaftesbury Ave,NA,NA,Camden,http://www.shaftesburytheatre.com/,5038488,E09000007,Holborn and Covent Garden,E05000138,-0.127702348826003,51.5167859675125,529784.7073418836,181531.7203845898,11/20/2022
Conway Hall,25 Red Lion Square,NA,NA,Camden,https://conwayhall.org.uk/,5048256,E09000007,Holborn and Covent Garden,E05000138,-0.11991920012841055,51.52030279323144,530314.5367670143,181936.57052723167,11/20/2022
Theatro Technis,26 Crowndale Rd, Kings Cross,NA,Camden,http://www.theatrotechnis.com/,5061419,E09000007,St. Pancras and Somers Town,E05000143,-0.13576398548108515,51.53604906665467,529170.9561883811,183659.12411658384,11/20/2022
Tristan Bates Theatre,1A Tower St, London,NA,City of Westminster,https://www.tristanbatestheatre.co.uk/,5077305,E09000033,West End,E05000649,-0.12968409296420888,51.5137962091418,529655.7378990743,181195.80146272504,11/20/2022
Lion and Unicorn Theatre,42-44 Gaisford St, Kentish Town,NA,Camden,http://www.lionandunicorntheatre.co.uk/,5082943,E09000007,Kentish Town,E05000139,-0.14142272432030928,51.54861882368309,528743.103259554,185046.656916828,11/20/2022
Dominion Theatre,268-269 Tottenham Court Rd, Fitzrovia,NA,Camden,https://www.nederlander.co.uk/dominion-theatre,5083050,E09000007,Bloomsbury,E05000129,-0.13124801330240046,51.5174718389579,529536.8169264615,181601.68648537534,11/20/2022
Shaw Theatre,100-110 Euston Rd, Kings Cross,NA,Camden,https://www.shaw-theatre.com/,5083194,E09000007,St. Pancras and Somers Town,E05000143,-0.12971742775567804,51.52915480473698,529609.7881512711,182903.31988058606,11/20/2022
Embassy Theatre,The Royal Central School of Speech and Drama, 62-64 Eton Ave,NA,Camden,https://www.cssd.ac.uk/content/facilities,5084778,E09000007,Frognal and Fitzjohns,E05000133,-0.1757821912485239,51.54483350251209,526371.9251420154,184565.8109439715,11/20/2022
Cambridge Theatre,Earlham Street,NA,NA,Camden,http://www.reallyusefultheatres.co.uk/our-theatres/cambridge,5089373,E09000007,Holborn and Covent Garden,E05000138,-0.12798826395696633,51.51402121910827,529772.7363170394,181223.82727669313,11/20/2022
Haverstock School Theatre ,Haverstock School, 24 Haverstock Hill,NA,Camden,NA,5090679,E09000007,Haverstock,E05000136,-0.15502351905747053,51.54480978684451,527811.0279618391,184599.28262193536,11/20/2022
St Martin's Theatre,West St,NA,NA,City of Westminster,https://www.the-mousetrap.co.uk/,5090739,E09000033,West End,E05000649,-0.12921562921709398,51.513350159133026,529689.5022257699,181147.0405281594,11/20/2022
Roundhouse,Chalk Farm Rd, Camden Town,NA,Camden,http://www.roundhouse.org.uk/,5109516,E09000007,Camden Town with Primrose Hill,E05000130,-0.1528914400038746,51.54354905371327,527962.3671899772,184462.8447002428,11/20/2022
Ambassadors Theatre,West St,NA,NA,City of Westminster,https://www.theambassadorstheatre.co.uk/Online/,5110511,E09000033,West End,E05000649,-0.1295693977545588,51.51350873810073,529664.5108682419,181164.04381093656,11/20/2022
Bridge House Theatre,2 High St,NA,NA,Bromley,https://www.bhtheatre.com/,100020000000,E09000006,Crystal Palace,E05000116,-0.0622302193400366,51.418584057898876,534615.1075073112,170732.03551028605,11/20/2022
Lauderdale House,Waterlow Park, Highgate Hill,NA,Camden,http://lauderdalehouse.org.uk/,5132343,E09000007,Highgate,E05000137,-0.14491124011958625,51.570165507552694,528440.5108451743,187436.0738217046,11/20/2022
Hampstead Theatre,Eton Avenue, Swiss Cottage,NA,Camden,https://www.hampsteadtheatre.com/,5134828,E09000007,Belsize,E05000128,-0.1739763621958205,51.544562560495,526497.861221479,184538.81198670832,11/20/2022
Donmar Warehouse,41 Earlham St,NA,NA,Camden,https://www.donmarwarehouse.com/,5147687,E09000007,Holborn and Covent Garden,E05000138,-0.1273173410795329,51.514568180008915,529817.7216773893,181285.82977395627,11/20/2022
New Diorama Theatre,15-16 Triton St, London ,NA,Camden,http://www.newdiorama.com/,5155688,E09000007,Regent's Park,E05000142,-0.143924929318968,51.5254148784524,528635.1032364792,182462.41015309154,11/20/2022
Gillian Lynne Theatre,166 Drury Ln,NA,NA,Camden,http://www.reallyusefultheatres.co.uk/our-theatres/new-london,5157611,E09000007,Holborn and Covent Garden,E05000138,-0.1243786598230061,51.51594210606206,530017.657726777,181443.80604828522,11/20/2022
Camden People's Theatre,58-60 Hampstead Rd, Kings Cross,NA,Camden,https://www.cptheatre.co.uk/,5158137,E09000007,Regent's Park,E05000142,-0.1399723532255683,51.52689881428192,528905.0274024745,182634.35947741976,11/20/2022
Pentameters Theatre,The Horseshoe, 28 Heath St,NA,Camden,http://www.pentameters.co.uk/,5162760,E09000007,Frognal and Fitzjohns,E05000133,-0.18004119547055272,51.55628230425253,526045.0008284601,185831.34268318396,11/20/2022
Upstairs at The Gatehouse,Highgate Village,NA,NA,Haringey,http://www.upstairsatthegatehouse.com/,5166442,E09000014,Highgate,E05000272,-0.15193565469927509,51.57246809026717,527947.3611892195,187679.7416605156,11/20/2022
Platform Theatre,Central Saint Martin's, 1 Handyside St, Kings Cross,Camden,NA,5167112,E09000007,St. Pancras and Somers Town,E05000143,-0.12519607870094518,51.53743114924061,529899.746360794,183831.5192457654,11/20/2022
Wiltons Music Hall,1 Graces Alley, Whitechapel,NA,Tower Hamlets,https://www.wiltons.org.uk/,6006845,E09000030,Whitechapel,E05009336,-0.06855098152314887,51.5111242301771,533904.3177072529,181008.89950051653,11/20/2022
Half Moon Young Peopleâ€™s Theatre,43 White Horse Road,NA,NA,Tower Hamlets,http://www.halfmoon.org.uk/,6044554,E09000030,Stepney Green,E05009334,-0.04222055336179672,51.51423921425979,535721.6696195585,181403.7525289107,11/20/2022
The Half Moon,10 Half Moon Lane, Herne Hill,NA,Southwark,http://www.halfmoonhernehill.co.uk/,6044554,E09000028,Dulwich Village,E05011100,-0.0978911721042054,51.4533918452999,532035.7116524508,174536.97214123653,11/20/2022
The Space,269 Westferry Rd, Isle of Dogs,NA,Tower Hamlets,https://space.org.uk/,6060149,E09000030,Island Gardens,E05009324,-0.02581689990938972,51.49268042767557,536924.180950054,179037.45373557467,11/20/2022
The Yard Theatre,Unit 2A, Queenâ€™s Yard,White Post Lane,Tower Hamlets,https://theyardtheatre.co.uk/,6077552,E09000030,Bow East,E05009319,-0.024359022337676145,51.54300955723465,536874.3155735427,184635.68538884714,11/20/2022
Chisenhale Dance Space,64-84 Chisenhale Rd,NA,NA,Tower Hamlets,http://www.chisenhaledancespace.co.uk/,6146768,E09000030,Bow West,E05009320,-0.0400691300878303,51.53413798560607,535811.6628177078,183620.02780056524,11/20/2022
Toynbee Studios,28 Commercial St,NA,NA,Tower Hamlets,https://www.artsadmin.co.uk/toynbee-studios,6183707,E09000030,Spitalfields & Banglatown,E05009333,-0.07392359297470631,51.517003617717734,533514.4023954292,181652.7429910199,11/20/2022
Rich Mix,35-47 Bethnal Green Rd, London,NA,Tower Hamlets,https://www.richmix.org.uk/,6192962,E09000030,Weavers,E05009335,-0.07541260710627984,51.524742821169056,533388.4921025058,182510.46023214282,11/20/2022
Grange Court Theatre ,Drama Studio London, Grange Court,NA,Ealing,NA,12084359,E09000009,Ealing Common,E05000174,-0.3054568839768728,51.509917155602686,517472.3670908986,180467.37932247098,11/20/2022
The Questors Theatre,12 Mattock Ln,NA,NA,Ealing,http://www.questors.org.uk/,12084402,E09000009,Walpole,E05000192,-0.31124231002353125,51.51221678004136,517065.1005253757,180713.76967865106,11/20/2022
Lyric Hammersmith,Lyric Square, King St,NA,Hammersmith and Fulham,https://lyric.co.uk/,34027053,E09000013,Hammersmith Broadway,E05000256,-0.22787712260406484,51.49375939028386,522898.0447134813,178798.50019214564,11/20/2022
Eventim Apollo,45 Queen Caroline Street, Hammersmith,NA,Hammersmith and Fulham,NA,34030384,E09000013,Hammersmith Broadway,E05000256,-0.22701032963284334,51.49099868707071,522965.63271511585,178493.01959322824,11/20/2022
Shepherds Bush Empire,Shepherd's Bush Green,NA,NA,Hammersmith and Fulham,https://academymusicgroup.com/o2shepherdsbushempire/,34030760,E09000013,Shepherd's Bush Green,E05000263,-0.22607049220849804,51.503937464738584,522996.00901298743,179933.14873582538,11/20/2022
Bush Theatre,7 Uxbridge Rd, Shepherd's Bush,NA,Hammersmith and Fulham,https://www.bushtheatre.co.uk/,34032421,E09000013,Shepherd's Bush Green,E05000263,-0.22704543078226302,51.5055342950238,522924.063329444,180109.04657961597,11/20/2022
Barons Court Theatre,28a Comeragh Rd,NA,NA,Hammersmith and Fulham,http://www.offwestend.com/index.php/theatres/view/42,34128758,E09000013,North End,E05000258,-0.2123375178896296,51.48963907053891,523987.6860060262,178366.63373724307,11/20/2022
The Bhavan Centre,4A Castletown Rd, Hammersmith,NA,Hammersmith and Fulham,http://www.bhavan.net/,34140084,E09000013,North End,E05000258,-0.2081939313937273,51.48990811744111,524274.54611582845,178403.58022170962,11/20/2022
Riverside Studios,101 Queen Caroline Street, Hammersmith,NA,Hammersmith and Fulham,http://www.riversidestudios.co.uk/,34153945,E09000013,North End,E05000258,-0.2081939313937273,51.48990811744111,524274.54611582845,178403.58022170962,11/20/2022
Sainsbury Theatre,155 Talgarth Rd,NA,NA,Hammersmith and Fulham,https://www.lamda.ac.uk/hire-our-spaces,34160370,E09000013,Avonmore and Brook Green,E05000252,-0.21552325487419968,51.49106287784542,523762.7152090829,178519.5369211816,11/20/2022
Teatr Polski,Polish Centre, 238-46 King Street,NA,Hammersmith and Fulham,http://www.posk.org/c5/en/home/,34160956,E09000013,Ravenscourt Park,E05000261,-0.23901505573817486,51.49403513904844,522124.3276733131,178810.4933782622,11/20/2022
New Wimbledon Theatre,93 The Broadway, Wimbledon,NA,Merton,http://www.atgtickets.com/venues/new-wimbledon-theatre/,48008413,E09000024,Trinity,E05000471,-0.20289575274767788,51.41980862790408,524833.615888894,170618.91068412922,11/20/2022
Polka Theatre,240 The Broadway, Wimbledon,NA,Merton,https://polkatheatre.com/,48008566,E09000024,Trinity,E05000471,-0.1960784350015646,51.420198742717,525306.437403751,170673.9341458917,11/20/2022
Merton Arts Space,Compton Rd, Wimbledon,NA,Merton,https://arena.yourlondonlibrary.net/web/merton/merton-arts-space-wimbledon,48017144,E09000024,Hillside,E05000462,-0.20846541314417708,51.423743155778226,524435.7545531882,171046.8639574952,11/20/2022
Collyer Hall Theatre,King's College School, Southside, Wimbledon Common,Merton,https://www.kcs.org.uk/the-kings-community/venue-hire/performance-venues,48065710,E09000024,Village,E05000472,-0.22770748483034164,51.42244792716742,523101.7858462363,170870.3194036032,11/20/2022
Lantern Arts Centre,Tolverne Road, Raynes Park,NA,Merton,https://www.lanternarts.org/,48111953,E09000024,Raynes Park,E05000469,-0.2314599239229045,51.411899082908896,522869.2512730361,169691.22387073847,11/20/2022
The Colour House Theatre,Merton Abbey Mills, Watermill Way,NA,Merton,http://www.colourhousetheatre.co.uk/,48112460,E09000024,Abbey,E05000455,-0.18476621267758112,51.41351460609228,526111.1897237888,169950.22707572102,11/20/2022
Bridewell Theatre,14 Bride Ln, Fleet St,NA,City and County of the City of London,http://www.sbf.org.uk/venue-hire/bridewell-theatre/,95511225,E09000001,Castle Baynard,E05009297,-0.10660338919514775,51.51401961793313,531256.1807636346,181261.83096171508,11/20/2022
The Red Hedgehog,255 - 257 Archway Road, Highgate,NA,Haringey,http://www.theredhedgehog.co.uk/,100021000000,E09000014,Highgate,E05000272,-0.14557858750118682,51.57665106807653,528375.9791425845,188155.96110266278,11/20/2022
Milton Court,1 Milton Street,NA,NA,City and County of the City of London,https://www.barbican.org.uk/hire/venue-hire/venues/milton-court-concert-hall,95511391,E09000001,Cripplegate,E05009302,-0.09268289830907035,51.52054718619129,532202.9121104548,182012.64555071894,11/20/2022
Barbican Theatre,Silk St,NA,NA,City and County of the City of London,https://www.barbican.org.uk/,95512046,E09000001,Aldersgate,E05009288,-0.09571360542190653,51.520470169199285,531992.9286539529,181998.60965098982,11/20/2022
The Broadway,11-13 Broadway, Barking,NA,Barking and Dagenham,https://www.thebroadwaybarking.com/,100058301,E09000002,Abbey,E05000026,0.0757022762528122,51.536390321851414,543831.6366191416,184091.87240238278,11/20/2022
Tara Theatre,356 Garratt Ln,NA,NA,Wandsworth,https://www.tara-arts.com/,121011012,E09000032,Earlsfield,E05000612,-0.18943917521719103,51.44228795092532,525707.222586451,173141.20630361367,11/20/2022
Battersea Arts Centre,Lavender Hill,NA,NA,Wandsworth,https://www.bac.org.uk/,121015942,E09000032,Shaftesbury,E05000623,-0.16241482231889132,51.46567840164486,527519.5591202902,175788.53954675468,11/20/2022
Rose Theatre,24-26 High St, Kingston upon Thames,NA,Richmond upon Thames,https://www.rosetheatrekingston.org/,128029778,E09000027,Hampton Wick,E05000522,-0.3092911923487854,51.408777676331695,517465.957473641,169216.4947213921,11/20/2022
All Saints Arts Centre,122 Oakleigh Rd North, Whetstone,NA,Barnet,NA,200088136,E09000003,Oakleigh,E05000058,-0.17525466208750679,51.63269014380219,526164.6285730546,194334.66654003697,11/20/2022
The Bull Theatre,68 High St, Barnet,NA,Barnet,https://www.thebulltheatre.com/,200148795,E09000003,High Barnet,E05000056,-0.20096385841041747,51.653603403545866,524328.5649529024,196615.7220233351,11/20/2022
artsdepot,5 Nether St, Tally Ho Corner, North Finchley,Barnet,https://www.artsdepot.co.uk/,200198999,E09000003,West Finchley,E05000061,-0.1778996827887166,51.61346126926521,526034.9403038005,192192.23579849966,11/20/2022
The Kiln,269 Kilburn High Rd, Kilburn,NA,Brent,https://kilntheatre.com/,202124574,E09000005,Kilburn,E05000094,-0.20199356192404672,51.54423111173105,524556.5359476067,184453.83317116735,11/20/2022
Millfield Theatre,Silver St, Edmonton,NA,Enfield,https://www.millfieldtheatre.co.uk/,207016763,E09000010,Haselbury,E05000201,-0.07990445779681846,51.616700680572905,532808.3283824747,192726.0205306051,11/20/2022
Intimate Theatre,521 Green Lanes, Palmers Green,NA,Enfield,http://www.smptheatre.co.uk/faqs/the-intimate-theatre/,207035876,E09000010,Winchmore Hill,E05000213,-0.10514943387139455,51.62504171624158,531037.074345609,193607.79197320458,11/20/2022
Chickenshed Theatre,290 Chase Side, Southgate,NA,Enfield,https://www.chickenshed.org.uk/,207078080,E09000010,Cockfosters,E05000196,-0.14685179913905314,51.644930997223156,528095.2568204986,195745.07884413016,11/20/2022
Chelsea Theatre,7 World's End Place, King's Rd, Chelsea,Kensington and Chelsea,http://www.chelseatheatre.org.uk/,217005389,E09000020,Stanley,E05009405,-0.1812371902860874,51.48215635297819,526166.9284303767,177587.89619424002,11/20/2022
Opera Holland Park Theatre,Ilchester Place, Kensington,NA,Kensington and Chelsea,http://www.operahollandpark.com/,217038848,E09000020,Holland,E05009397,-0.20444934346071145,51.50115651634619,524503.7743574867,179660.556473338,11/20/2022
The Playground Theatre,8 Latimer Industrial Estate, Latimer Rd,NA,Hammersmith and Fulham,http://theplaygroundtheatre.london/,217052352,E09000013,College Park and Old Oak,E05000253,-0.22600174803065223,51.518314118404724,522962.045833069,181531.68319343904,11/20/2022
Print Room at the Coronet,103 Notting Hill Gate, Kensington,NA,Kensington and Chelsea,https://www.the-print-room.org/,217059398,E09000020,Pembridge,E05009400,-0.20048507588142672,51.508996446797,524757.4253890738,180538.96557241038,11/20/2022
The Tabernacle W11,34-35 Powis Square,NA,NA,Kensington and Chelsea,https://www.tabernaclew11.com/,217070132,E09000020,Colville,E05009392,-0.20314396319684555,51.51721062864502,524550.5432579648,181447.6948121494,11/20/2022
Royal Court Theatre,Sloane Square, Chelsea,NA,Kensington and Chelsea,https://royalcourttheatre.com/,217078033,E09000020,Royal Hospital,E05009403,-0.15799890356956667,51.49312267230601,527749.3913468373,178847.47272615734,11/20/2022
Cadogan Hall,5 Sloane Terrace, Belgravia,NA,Kensington and Chelsea,https://www.cadoganhall.com/,217078765,E09000020,Royal Hospital,E05009403,-0.15910381480434369,51.49394057575294,527670.4230143917,178936.47768371872,11/20/2022
Drayton Arms Theatre,153 Old Brompton Road,NA,NA,Kensington and Chelsea,http://www.thedraytonarmstheatre.co.uk/index.php,217101579,E09000020,Redcliffe,E05009402,-0.18515721072684257,51.49115439458023,525870.0001064772,178581.54289749102,11/20/2022
Gate Theatre,11 Pembridge Rd, Notting Hill,NA,Kensington and Chelsea,https://www.gatetheatre.co.uk/,217105236,E09000020,Pembridge,E05009400,-0.199262214493141,51.510038369549356,524839.4144737088,180656.89518847998,11/20/2022
Finborough Theatre,118 Finborough Road, Kensington,NA,Kensington and Chelsea,http://www.finboroughtheatre.co.uk/,217112560,E09000020,Redcliffe,E05009402,-0.1911104669773156,51.48666972967394,525469.1430335672,178072.7069762465,11/20/2022
Almeida Theatre,Almeida St, Islington,NA,Islington,https://almeida.co.uk/,5300001086,E09000019,St. Mary's,E05000379,-0.10557006542963196,51.53995317672141,531253.2182870964,184146.97951371584,11/20/2022
Young Actors Theatre,70-72 Barnsbury Road,NA,NA,Islington,NA,5300006610,E09000019,Barnsbury,E05000366,-0.11253337725049989,51.53663920388601,530779.9610855274,183766.05413940997,11/20/2022
Union Chapel,19b Compton Terrace,NA,NA,Islington,http://www.unionchapel.org.uk/,5300023057,E09000019,St. Mary's,E05000379,-0.10433130667248795,51.544779687747315,531325.1960319588,184685.81187146466,11/20/2022
The Little Angel Theatre,14 Dagmar Passage, Islington,NA,Islington,https://littleangeltheatre.com/,5300026580,E09000019,St. Mary's,E05000379,-0.10287731781767259,51.53952324655064,531441.1441618903,184104.01708378404,11/20/2022
Sadler's Wells Theatre,Rosebery Ave, Clerkenwell,NA,Islington,https://www.sadlerswells.com/,5300080047,E09000019,Clerkenwell,E05000370,-0.10787462474591503,51.529937122450505,531122.2411557245,183029.2599486056,11/20/2022
Rosemary Branch Theatre,2 Shepperton Rd,NA,NA,Islington,http://www.rosemarybranchtheatre.co.uk/,5300082551,E09000019,Canonbury,E05000369,-0.0885456507562827,51.538130387573894,532438.8036872882,183975.00922323822,11/20/2022
Old Red Lion,418 St John St, Clerkenwell,NA,Islington,http://www.oldredliontheatre.co.uk/,5300085363,E09000019,Barnsbury,E05000366,-0.10746070944324394,51.53191794150089,531145.248094975,183250.23028080928,11/20/2022
Hen and Chickens Theatre,109 St Paul's Road,NA,NA,Islington,https://www.thehenandchickenstheatrebar.co.uk/,5300086694,E09000019,Highbury East,E05000372,-0.10313347488556027,51.54654050482146,531403.1558464244,184883.72947621852,11/20/2022
Kings Head Theatre,115 Upper St, Islington,NA,Islington,http://www.kingsheadtheatre.com/,5300094557,E09000019,St. Mary's,E05000379,-0.10447714085685696,51.53849633316568,531333.1862494001,183986.97048713238,11/20/2022
The Hope Theatre,207 Upper Street,NA,NA,Islington,http://www.thehopetheatre.com/,5300094879,E09000019,St. Mary's,E05000379,-0.10509521255758925,51.54408175712269,531274.2504799948,184606.84499982372,11/20/2022
Theatre Peckham,221 Havil St, Camberwell,NA,Southwark,https://www.theatrepeckham.co.uk/,10000811503,E09000028,St. Giles,E05011115,-0.08530628636911021,51.477518429714635,532839.6912853421,177242.1131106756,11/20/2022
Hampton Hill Theatre,90 High St, Hampton Hill, Hampton,Richmond upon Thames,http://www.hamptonhilltheatre.org.uk/,10002251133,E09000027,Fulwell and Hampton Hill,E05000518,-0.3565477155951328,51.42763904969559,514133.193672618,171238.76061008457,11/20/2022
Richmond Theatre,Little Green, Richmond,NA,Richmond upon Thames,http://www.atgtickets.com/venues/richmond-theatre/,10002264543,E09000027,South Richmond,E05000528,-0.30538887741379117,51.46257946526371,517598.9475859034,175204.3743480486,11/20/2022
The Beck Theatre,Grange Rd, Hayes,NA,Hillingdon,https://becktheatre.org.uk/,10003001360,E09000017,Townfield,E05000339,-0.4233741268697176,51.52155420583695,509263.71189025085,181578.36366885877,11/20/2022
Alexandra Palace Theatre,Alexandra Palace, Alexandra Palace Way,NA,Haringey,http://www.alexandrapalace.com/,10003974918,E09000014,Alexandra,E05000266,-0.1321109644549455,51.5949839472599,529256.8125759473,190217.95619697234,11/20/2022
Theatre N16 ,5 Ashley Road,NA,NA,Haringey,https://www.theatren16.co.uk/,10003979036,E09000014,Tottenham Hale,E05000281,-0.06274564864095836,51.59065970940856,534072.680415642,189862.14495268028,11/20/2022
Rose Lipman Building,43 De Beauvoir Rd,NA,NA,Hackney,http://www.themillcoproject.co.uk/spaces/the-rose-lipman-building/,10008241945,E09000012,De Beauvoir,E05009371,-0.08319939163647931,51.5394745048292,532805.5554791661,184134.1356897304,11/20/2022
Hackney Arts Centre - EartH (Evolutionary Arts Hackney),11-17 Stoke Newington Road, Stoke Newington,NA,Hackney,https://www.hackneyartscentre.org/,10008300562,E09000012,Shacklewell,E05009382,-0.07699946636679565,51.55140177146531,533200.5118518705,185471.44566410192,11/20/2022
Shoreditch Town Hall,380 Old St,NA,NA,Hackney,https://shoreditchtownhall.com/,10008305130,E09000012,Hoxton East & Shoreditch,E05009377,-0.08128911318651678,51.527590515925816,532972.6411113323,182816.3666663209,11/20/2022
Church Street Theatre ,St Mary's Rectory, Stoke Newington Church Street,NA,Hackney,NA,10008310096,E09000012,Clissold,E05009369,-0.08601517193745228,51.5616174991879,532545.8683918819,186590.85045300063,11/20/2022
Arcola Theatre,24 Ashwin St, Dalston,NA,Islington,https://www.arcolatheatre.com/,10008321023,E09000019,Mildmay,E05000377,-0.07694321896061931,51.5476061863884,533215.5157369154,185049.56153523212,11/20/2022
Network Theatre,246A Lower Rd, Waterloo,NA,Lambeth,https://networktheatre.org/,10008787031,E09000022,Bishop's,E05000416,-0.11388852202820463,51.502746116246115,530783.116709876,179995.3864555774,11/20/2022
Brick Lane Music Hall,443 North Woolwich Road,NA,NA,Newham,https://www.bricklanemusichall.co.uk/,10008988100,E09000025,Royal Docks,E05000491,0.04118378843081843,51.502939622424655,541542.1684984616,180305.57366483222,11/20/2022
Stratford Circus Arts Centre,Theatre Square, Stratford,NA,Newham,https://stratford-circus.com/,10008996899,E09000025,Stratford and New Town,E05000492,-0.00015778421796739327,51.54344505535073,538550.6859620597,184729.7261434212,11/20/2022
Theatre Royal Stratford East,Gerry Raffles Square,NA,NA,Newham,http://www.stratfordeast.com/,10009003230,E09000025,Stratford and New Town,E05000492,-0.0006377019617914577,51.54302209998728,538518.703058555,184681.79348948208,11/20/2022
Unicorn Theatre,147 Tooley St,NA,NA,Southwark,https://www.unicorntheatre.com/,10009804074,E09000028,London Bridge & West Bermondsey,E05011104,-0.0828895130426624,51.50458885766454,532928.6381671017,180256.1640541334,11/20/2022
Greenwich Theatre,Crooms Hill,NA,NA,Greenwich,https://www.greenwichtheatre.org.uk/,10010200382,E09000011,Greenwich West,E05000222,-0.009243720086876964,51.479982816820986,538112.7188837732,177656.9066608037,11/20/2022
Edward Alderton Theatre,5 Brampton Rd, Bexleyheath,NA,Bexley,http://www.edwardalderton.org/,10011844980,E09000004,Crook Log,E05011223,0.12522884449574503,51.46207494816597,547505.3792217122,175928.50655037392,11/20/2022
Ralph Richardson Memorial Studios ,Mountview Theatre School, 104 Crouch Hill,NA,Haringey,NA,100021000000,E09000014,Crouch End,E05000269,-0.12348818803030576,51.57658776530412,529906.4268134837,188187.98163087777,11/20/2022
Rose Theatre,Lamorbey House, Burnt Oak Lane,NA,Bexley,https://www.bruford.ac.uk/,10011845091,E09000004,Blackfen & Lamorbey,E05011220,0.10484234502969537,51.43979204291358,546160.8162107946,173410.32542800065,11/20/2022
Erith Playhouse,38-40 Erith High St, Erith,NA,Bexley,http://www.playhouse.org.uk/,10011845592,E09000004,Erith,E05011225,0.17938884477338768,51.48217555603904,551199.9299370812,178273.72256687633,11/20/2022
Pleasance Theatre,Carpenters Mews, North Rd,NA,Islington,https://www.pleasance.co.uk/,10012788835,E09000019,Holloway,E05000375,-0.12319656609249525,51.549246096147826,530004.6797524171,185148.6707170151,11/20/2022
Platform,Hornsey Road Baths, 2 Tiltman Place,NA,Islington,NA,10012794343,E09000019,Finsbury Park,E05000371,-0.11716880990199895,51.561773501942255,530386.6272388417,186552.20438558032,11/20/2022
Applecart Arts,170 Harold Rd,NA,NA,Newham,http://www.applecartarts.com/,10012836969,E09000025,Plaistow North,E05000489,0.02597421832926133,51.53441802465949,540389.9778187049,183775.95276064973,11/20/2022
The Scoop,Queen's Walk,NA,NA,Lambeth,https://www.visitlondon.com/things-to-do/place/3720745-scoop,10013532078,E09000022,Bishop's,E05000416,-0.12083181322246857,51.50417225193464,530297.280075733,180141.54737124307,11/20/2022
Broadway Theatre,Rushey Green,NA,NA,Lewisham,https://www.broadwaytheatre.org.uk/,10023226829,E09000023,Rushey Green,E05000451,-0.02292198347685534,51.44572095365428,537266.0446724537,173822.0280115686,11/20/2022
Stockwell Playhouse,208 Wandsworth Road,NA,NA,Lambeth,http://www.stockwellph.com/,10023851231,E09000022,Stockwell,E05000429,-0.13282344805855742,51.476485791651676,529543.7901452804,177042.08503926208,11/20/2022
Battersea Barge,Nine Elms Lane,NA,NA,Wandsworth,http://www.batterseabarge.com/bbevents/,10025500313,E09000032,Queenstown,E05000620,-0.13932526494566302,51.482659031617956,529074.9342626474,177716.92026863398,11/20/2022
London Palladium,Argyll St, Soho,NA,City of Westminster,http://london-palladium.co.uk/,10033529083,E09000033,West End,E05000649,-0.14189891815085248,51.514979885620114,528805.0644293491,181305.81023295742,11/20/2022
Britten Opera Theatre,Royal College of Music, Prince Consort Road,NA,City of Westminster,NA,100023000000,E09000033,Knightsbridge and Belgravia,E05000637,-0.17846505681994412,51.49979219073049,526310.5714723094,179553.43755405478,11/20/2022
Jermyn Street Theatre,16B Jermyn St, St. James's,NA,City of Westminster,http://www.jermynstreettheatre.co.uk/,10033536763,E09000033,West End,E05000649,-0.13651034134009232,51.509670474356206,529193.8832547743,180725.01665411767,11/20/2022
Harold Pinter Theatre,Panton St,NA,NA,City of Westminster,http://www.atgtickets.com/venues/harold-pinter-theatre/,10033540343,E09000033,St. James's,E05000644,-0.13327566087055495,51.509834514136855,529417.8256722728,180748.97561586753,11/20/2022
Gielgud Theatre,Shaftesbury Ave, Soho,NA,City of Westminster,https://www.delfontmackintosh.co.uk/theatres/gielgud-theatre/,10033543105,E09000033,West End,E05000649,-0.13480856380696835,51.512520235984766,529303.8721755682,181044.86230391357,11/20/2022
Vaudeville Theatre,404 Strand,NA,NA,City of Westminster,https://www.nimaxtheatres.com/theatres/vaudeville-theatre/,10033544051,E09000033,St. James's,E05000644,-0.12408358264298591,51.51085658102539,530052.6159841579,180878.9212793553,11/20/2022
Royal Opera House,Bow St,NA,NA,City of Westminster,http://www.roh.org.uk/,10033547198,E09000033,St. James's,E05000644,-0.1242606212540359,51.5135573287082,530032.6399020359,181178.87594546587,11/20/2022
Institute of Contemporary Arts,The Mall, St. James's,NA,City of Westminster,https://www.ica.art/,10033548625,E09000033,St. James's,E05000644,-0.13191574150498805,51.5071417909369,529519.8098196588,180452.0065436446,11/20/2022
Apollo Theatre,Shaftesbury Ave, Soho,NA,City of Westminster,https://www.nimaxtheatres.com/theatres/apollo-theatre/,10033548808,E09000033,West End,E05000649,-0.1349875350540233,51.51201028102943,529292.9012017281,180987.84887351643,11/20/2022
May Fair Theatre ,The May Fair Hotel, Stratton Street, Mayfair,City of Westminster,http://www.themayfairhotel.co.uk/en/may-fair-theatre.html,10033549456,E09000033,West End,E05000649,-0.14548365964491505,51.50802525819279,528575.9883720076,180526.28237267496,11/20/2022
Palace Theatre,Shaftesbury Ave, Soho,NA,City of Westminster,https://www.nimaxtheatres.com/theatres/palace-theatre/,10033553103,E09000033,West End,E05000649,-0.1312339360214543,51.513596199676506,529548.7942949417,181170.81664036942,11/20/2022
Soho Theatre,21 Dean Street,NA,NA,City of Westminster,https://sohotheatre.com/,10033554562,E09000033,West End,E05000649,-0.1345135108576875,51.51488794019928,529317.6318854592,181308.62610894587,11/20/2022
Theatre Royal Drury Lane ,Catherine St,NA,NA,City of Westminster,http://www.reallyusefultheatres.co.uk/our-theatres/theatre-royal,10033555899,E09000033,St. James's,E05000644,-0.12194784546272676,51.513385386373,530193.5663532936,181163.87583644077,11/20/2022
Puppet Theatre Barge,Blomfield Road (opposite 35),NA,NA,City of Westminster,http://www.puppetbarge.com/Controllers/homepage.php,10033556397,E09000033,Little Venice,E05000639,-0.18632704023412353,51.52224162322516,525703.1811261341,182035.8331223713,11/20/2022
The Other Palace,12 Palace St, Westminster,NA,City of Westminster,https://www.theotherpalace.co.uk/,10033568019,E09000033,St. James's,E05000644,-0.1436924369635553,51.49923633609939,528725.0366911442,179552.27946683107,11/20/2022
The Lyceum Theatre,21 Wellington St,NA,NA,City of Westminster,https://www.thelyceumtheatre.com/,10033572107,E09000033,St. James's,E05000644,-0.12171983789887551,51.511933524202924,530213.5251333581,181002.86363824317,11/20/2022
Charing Cross Theatre,The Arches, Villiers St,NA,City of Westminster,http://www.charingcrosstheatre.co.uk/,10033582545,E09000033,St. James's,E05000644,-0.12570337812523896,51.508598762324276,529946.6720927809,180625.01640354056,11/20/2022
Criterion Theatre,218-223 Piccadilly, St. James's,NA,City of Westminster,https://www.criterion-theatre.co.uk/,10033582954,E09000033,West End,E05000649,-0.13529247074928957,51.51020844455167,529276.8500850559,180786.98109112546,11/20/2022
Sarah Siddons Theatre,City of Westminster College, Paddington Green Campus,NA,City of Westminster,https://www.cwc.ac.uk/private-hire/sarah-siddons-theatre,10033614767,E09000033,Little Venice,E05000639,-0.1760272038700554,51.521393700386966,526419.8942167374,181959.32312950696,11/20/2022
Novello Theatre,Aldwych, London,NA,City of Westminster,http://www.novellotheatrelondon.info/,10033615106,E09000033,St. James's,E05000644,-0.12104092694342652,51.51301143715263,530257.5462397995,181123.9156853123,11/20/2022
Normansfield Theatre,The Langdon Down Centre, Normansfield, 2A Langdon Park,Richmond upon Thames,https://langdondowncentre.org.uk/normansfield-theatre/,10070711098,E09000027,Hampton Wick,E05000522,-0.31591283582533186,51.41950034239001,516978.15745267563,170398.02338321187,11/20/2022
QEH Southbank Centre,Belvedere Rd, Lambeth,NA,Lambeth,https://www.southbankcentre.co.uk/venues/queen-elizabeth-hall,10090198178,E09000022,Bishop's,E05000416,-0.11755264830887595,51.50717503787731,530516.2161679622,180481.24547575944,11/20/2022
"St Johns, Waterloo",73 Waterloo Rd, Lambeth,NA,Lambeth,NA,10090199534,E09000022,Bishop's,E05000416,-0.11357939838240583,51.50499811222206,530798.1137436009,180246.3158558915,11/20/2022
Park Theatre,Clifton Terrace, Finsbury Park,NA,Islington,https://www.parktheatre.co.uk/,10090266645,E09000019,Finsbury Park,E05000371,-0.11002081831889517,51.566172427772884,530869.2960895353,187054.04307562078,11/20/2022
Blue Elephant Theatre,59A Bethwin Rd, Camberwell,NA,Southwark,http://www.blueelephanttheatre.co.uk/,10090283293,E09000028,Camberwell Green,E05011096,-0.09989194158475824,51.48065992012816,531818.0321473242,177564.99632609345,11/20/2022
Canada Water Theatre,21 Surrey Quays Road,NA,NA,Southwark,http://canadawaterculturespace.org.uk/,10090284129,E09000028,Rotherhithe,E05011112,-0.05076847859334276,51.49832275299785,535175.8335256497,179618.36589738453,11/20/2022
Theatre Utopia,1 Matthews Yard, Croydon,NA,Croydon,http://www.matthewsyard.com/,10090382144,E09000008,Fairfield,E05011468,-0.10269837582561578,51.3726881079965,531934.1401838278,165555.94190876378,11/20/2022
The Bridge Theatre,3 Potters Fields Park,NA,NA,Southwark,https://bridgetheatre.co.uk/,10090749570,E09000028,London Bridge & West Bermondsey,E05011104,-0.0788308848323306,51.5041449176166,533211.5332338166,180214.1894026053,11/20/2022
The CLF Art CafÃ©,Block A, Bussey Building, 133 Rye Lane,Southwark,https://www.clfartcafe.org/theatre,10090750261,E09000028,Rye Lane,E05011113,-0.0698247345843988,51.47042120636875,533935.2729498034,176481.2687667316,11/20/2022
Sam Wanamaker Playhouse,21 New Globe Walk,NA,NA,Southwark,http://www.shakespearesglobe.com/theatre/whats-on/sam-wanamaker-playhouse,10090750983,E09000028,Borough & Bankside,E05011095,-0.0981810966698339,51.50862324904411,531856.0121425901,180677.01912720065,11/20/2022
The Vaults,Leake Street, Lamebth,NA,Lambeth,https://www.thevaults.london/,10091121720,E09000022,Bishop's,E05000416,-0.11755605740239879,51.50247047745965,530529.4294440716,179958.18721595156,11/20/2022
Cervantes Theatre,Arch 26, Old Union Arches, 229 Union Street,Southwark,http://www.cervantestheatre.com/,10091668523,E09000028,Borough & Bankside,E05011095,-0.10337947810822057,51.503860599984975,531509.0851294284,180138.14491707587,11/20/2022
Hackney Showroom,Hackney Downs Studios, Amhurst Terrace,NA,Hackney,NA,10091775026,E09000012,Stoke Newington,E05009385,-0.06973744167557235,51.55496024245703,533693.3916610423,185880.31772574876,11/20/2022
Bernie Grant Arts Centre,Town Hall Approach Rd, Tottenham Green,NA,Haringey,https://www.berniegrantcentre.co.uk/,10091817474,E09000014,Tottenham Green,E05000280,-0.07400867718298278,51.58808292873386,533300.2656060165,189555.06886799302,11/20/2022
London Theatre,443 New Cross Rd, New Cross,NA,Lewisham,http://www.thelondontheatre.com/,10091838199,E09000023,New Cross,E05000449,-0.031807110401728365,51.47634389435151,536557.27100796,177209.99005259672,11/20/2022
Theatre503,503 Battersea Park Rd,NA,NA,Wandsworth,https://theatre503.com/,10091845630,E09000032,St. Mary's Park,E05000622,-0.16728283521041465,51.472443611027494,527162.6666471869,176532.21139093145,11/20/2022
Tabard Theatre,2 Bath Rd, Chiswick,NA,Hounslow,http://tabardtheatre.co.uk/,10091854897,E09000018,Chiswick Homefields,E05000348,-0.25505657114590613,51.496432560875355,521004.6883802211,179050.3647215207,11/20/2022
The Place,17 Duke's Rd, Bloomsbury,NA,Camden,https://www.theplace.org.uk/,10091861254,E09000007,St. Pancras and Somers Town,E05000143,-0.13056531111893058,51.527810909274656,529554.8082450356,182752.4010589241,11/20/2022
Kings Place,90 York Way, Kings Cross,NA,Camden,https://www.kingsplace.co.uk/,10091871351,E09000007,St. Pancras and Somers Town,E05000143,-0.12357717761961304,51.53474842305999,530019.6391822248,183536.13067293988,11/20/2022
Battersea Power Station Village Hall,188 Kirtling St,NA,NA,Wandsworth,https://www.bac.org.uk/content/40704/to_archive/consultation_sessions_circus_west_village_hall_battersea_power_station,10091874090,E09000032,Queenstown,E05000620,-0.1422729121010573,51.481707079267956,528873.0064864419,177605.88541197835,11/20/2022
Regents Park Open Air Theatre,Inner Cir,NA,NA,City of Westminster,https://openairtheatre.com/,10091898189,E09000033,Regent's Park,E05000643,-0.15603980441207388,51.528807349274174,527785.4126310183,182818.3360089932,11/20/2022
Waterloo East Theatre,Brad St, Lambeth,NA,Lambeth,https://www.waterlooeast.co.uk/,10091908867,E09000022,Bishop's,E05000416,-0.11151769288476607,51.50460338652723,530942.2919584333,180206.1208401178,11/20/2022
Katzpace,Katzenjammers, 24 Southwark Street,NA,Southwark,https://www.katzpace.co.uk/,10093339191,E09000028,Borough & Bankside,E05011095,-0.09262457607560132,51.50540364069288,532250.832650773,180329.09839839512,11/20/2022
Bunker Theatre,53A Southwark St,NA,NA,Southwark,https://www.bunkertheatre.com/,10093341165,E09000028,Borough & Bankside,E05011095,-0.09607722888139904,51.50517260421037,532011.9503969132,180297.1728063487,11/20/2022
Ryan Theatre,5 Yew Walk, Harrow,NA,Harrow,https://www.tagvenue.com/rooms/middlesex/1654/harrow-school/ryan-theatre,100021000000,E09000015,Harrow on the Hill,E05000289,-0.34130073258666443,51.57331898548574,514825.7788598521,187459.55989901948,11/20/2022
The Bread & Roses Theatre,68 Clapham Manor St,NA,NA,Lambeth,https://www.breadandrosestheatre.co.uk/,100022000000,E09000022,Clapham Town,E05000419,-0.13848221865285104,51.466909694859254,529178.0180592203,175967.4239648686,11/20/2022
The Royal Vauxhall Tavern,372 Kennington Lane, Vauxhall,NA,Lambeth,http://www.vauxhalltavern.com/,100022000000,E09000022,Prince's,E05000427,-0.12140522218124666,51.48700390363328,530306.4818677279,178231.7570550674,11/20/2022
White Bear Theatre,138 Kennington Park Rd, Kennington,NA,Lambeth,https://www.whitebeartheatre.co.uk/,100022000000,E09000022,Prince's,E05000427,-0.10965837054656741,51.487220086722886,531121.2081123008,178276.78801998892,11/20/2022
Landor Space,70 Landor Rd, Clapham North,NA,Lambeth,https://www.landorspace.com/,100022000000,E09000022,Larkhall,E05000425,-0.12763222771292285,51.46618085287746,529933.5212685857,175905.60839525872,11/20/2022
Fellowship Inn,Randlesdown Rd,NA,NA,Lewisham,https://www.phoenixch.org.uk/community/fellowship-inn,100022000000,E09000023,Bellingham,E05000437,-0.021849411943753033,51.433231264811184,537378.0765264276,172435.4837693157,11/20/2022
Deaton Theatre,Forest School, College Place,NA,Waltham Forest,https://www.forest.org.uk/senior-school/news-events/facility-hire/,100023000000,E09000031,Wood Street,E05000609,0.007758791750455325,51.58609344906432,538969.1980001077,189486.2310626827,11/20/2022
The Yaa Centre,1 Chippenham Mews,NA,NA,City of Westminster,NA,100023000000,E09000033,Harrow Road,E05000635,-0.19666642788281158,51.52406349493783,524981.0830145588,182220.66117956396,11/20/2022
Churchill Theatre,High Street, Bromley,NA,Bromley,https://churchilltheatre.co.uk/,100023000000,E09000006,Bromley Town,E05000109,0.01285566471615541,51.40428911545257,539878.1178915557,169283.56985983287,11/20/2022
Bromley Little Theatre,North Street, Bromley,NA,Bromley,http://bromleylittletheatre.org/,100023000000,E09000006,Bromley Town,E05000109,0.01363249810803662,51.4082146673247,539920.1437694824,169721.47174865444,11/20/2022
Theatre 62,Wickham Theatre Centre, Corkscrew Hill, West Wickham,Bromley,https://theatre62.wordpress.com/,100023000000,E09000006,West Wickham,E05000127,-0.011943755453455543,51.3734225856746,538246.9306337587,165804.99202744866,11/20/2022
Ashcroft Theatre (Fairfield Halls),Park Lane,NA,NA,Croydon,https://en.wikipedia.org/wiki/Ashcroft_Theatre,100023000000,E09000008,Fairfield,E05011468,-0.09738291688166564,51.37305114926197,532302.9563383604,165605.89368591597,11/20/2022
Geoffrey Whitworth Theatre,Beech Walk, Crayford,NA,Bexley,http://www.thegwt.org.uk/,100023000000,E09000004,Crayford,E05011222,0.1883775691691815,51.456057832683626,551910.6417937898,175388.78633604455,11/20/2022
Nursery Theatre,2  Finsbury Avenue ,NA,NA,Islington,http://thenurserytheatre.com/theatre/,100023000000,E09000019,Bunhill,E05000367,-0.08681444896265701,51.51992929438563,532611.7363592533,181954.57159205544,11/20/2022
Winterflood Theatre,City of London School, Queen Victoria Street,NA,City and County of the City of London,https://www.cityoflondonschool.org.uk/school-life/drama/winterflood-theatre,100023000000,E09000001,Castle Baynard,E05009297,-0.10094509503775877,51.51153824416853,531655.8462033257,180996.12707579066,11/20/2022
CentrE17,1 Church Hill,NA,NA,Waltham Forest,https://thecentre17.com/,100023000000,E09000031,High Street,E05000599,-0.019990926343150462,51.58584387846819,537048.0903064312,189406.0848981426,11/20/2022
"Mirth, Marvel and Maud",186 Hoe St, Walthamstow,NA,Waltham Forest,http://mirthmarvelandmaud.com/,100023000000,E09000031,William Morris,E05000608,-0.022018905831562477,51.587001674767116,536904.1432192803,189530.99823186162,11/20/2022
Redbridge Drama Centre,Churchfields, South Woodford,NA,Redbridge,http://www.redbridgedramacentre.co.uk/,100023000000,E09000026,Churchfields,E05011238,0.025399643869176123,51.598789500602805,540151.7866554954,190931.41484468378,11/20/2022
Hackney Empire,291 Mare St,NA,NA,Hackney,https://hackneyempire.co.uk/,100023000000,E09000012,Hackney Central,E05009372,-0.057085172016267866,51.546577257873956,534595.0557862788,184971.5143981303,11/20/2022
Chats Palace,Chats Palace Arts Centre, 42â€“44 Brooksbyâ€™s Walk,NA,Hackney,https://chatspalace.com/,100023000000,E09000012,Homerton,E05009376,-0.04437854497360178,51.55063710292275,535463.789436545,185446.3614782546,11/20/2022
Winston Churchill Theatre,Manor Farm, Pinn Way, Ruislip,Hillingdon,http://www.hillingdontheatres.uk/index.php/hire/our-spaces/wct/,100023000000,E09000017,Eastcote and East Ruislip,E05000329,-0.43031895496640676,51.5794431637199,508643.92347049346,188004.31830777664,11/20/2022
Kenneth More Theatre,Oakfield Road, Ilford,NA,Redbridge,https://www.kmtheatre.co.uk/,100023000000,E09000026,Ilford Town,E05011246,0.07101540572494508,51.560525556756566,543430.6606043054,186765.91268801014,11/20/2022
the cornerHOUSE Community Arts Centre,116 Douglas Rd, Surbiton,NA,Kingston upon Thames,http://www.thech.org/,100023000000,E09000021,Surbiton Hill,E05000413,-0.29561325729915205,51.3814061155264,518487.8434720787,166195.3132198996,11/20/2022
Cockpit Theatre,Gateforth St, Marylebone,NA,City of Westminster,http://thecockpit.org.uk/,100023000000,E09000033,Church Street,E05000634,-0.1708692755933803,51.524957453241264,526767.7358561571,182364.47774580773,11/20/2022
National Centre for Circus Arts ,Coronet Street,NA,NA,Hackney,NA,100023000000,E09000012,Hoxton West,E05009378,-0.0838679841879728,51.528030076155595,532792.5217256857,182860.55225835805,11/20/2022
Hoxton Hall,130 Hoxton St,NA,NA,Hackney,https://www.hoxtonhall.co.uk/,100023000000,E09000012,Hoxton East & Shoreditch,E05009377,-0.0816091668988306,51.53232500662257,532936.6471352878,183342.15909222042,11/20/2022
Courtyard Theatre,40 Pitfield St,NA,NA,Hackney,http://www.thecourtyard.org.uk/,100023000000,E09000012,Hoxton West,E05009378,-0.08498978715128114,51.528388442358555,532713.6849739901,182898.35921007983,11/20/2022
Tower Theatre ,16 Northwold Road,NA,NA,Hackney,http://www.towertheatre.org.uk/relo.htm,100023000000,E09000012,Stoke Newington,E05009385,-0.07354234928933352,51.563323449122905,533405.1682656718,186803.18678582401,11/20/2022
Jacksons Lane,269A Archway Rd, Highgate,NA,Haringey,https://www.jacksonslane.org.uk/,100023000000,E09000014,Highgate,E05000272,-0.14797529212998115,51.577612608047424,528207.2419546065,188258.6538831847,11/20/2022
Arthouse,159A Tottenham Lane,NA,NA,Haringey,NA,100023000000,E09000014,Hornsey,E05000273,-0.12154866956516953,51.582338135018,530024.3444236105,188830.75117713393,11/20/2022
Queen's Theatre Hornchurch ,Billet Ln, Hornchurch,NA,Havering,http://www.queens-theatre.co.uk/,100023000000,E09000016,St. Andrew's,E05000320,0.21779054439333426,51.5657199363651,553583.8345923924,187641.79350709065,11/20/2022
Young Vic,66 The Cut, Waterloo,NA,Lambeth,https://www.youngvic.org/,100023000000,E09000022,Bishop's,E05000416,-0.10887473666188882,51.50378940848611,531128.0060446041,180120.3597660028,11/20/2022
Blackheath Halls,23 Lee Rd, Blackheath,NA,Lewisham,NA,100023000000,E09000023,Blackheath,E05000438,0.007909575036997105,51.46530269217728,539348.2109133932,176057.35854480806,11/20/2022
Blackheath Halls,23 Lee Rd, Blackheath,NA,Lewisham,https://www.blackheathhalls.com/,100023000000,E09000023,Blackheath,E05000438,0.007909575036997105,51.46530269217728,539348.2109133932,176057.35854480806,11/20/2022
The Brockley Jack Theatre,410 Brockley Rd,NA,NA,Lewisham,http://www.brockleyjack.co.uk/,100023000000,E09000023,Crofton Park,E05000441,-0.04013948528394887,51.45394088416412,536045.46583096,174703.7482714944,11/20/2022
Bob Hope Theatre,2 Wythfield Rd, Eltham,NA,Greenwich,http://www.bobhopetheatre.co.uk/,100023000000,E09000011,Eltham South,E05000219,0.04888525884825754,51.45000019851771,542241.2339865477,174434.96866584546,11/20/2022
Putney Arts Theatre,Ravenna Rd, Putney,NA,Wandsworth,http://www.putneyartstheatre.org.uk/,100023000000,E09000032,East Putney,E05000613,-0.22170317074438145,51.461026517403596,523414.9482340534,175169.62243055028,11/20/2022
Trafalgar Studios,14 Whitehall, Westminster,NA,City of Westminster,http://trafalgarentertainment.com/about-us/trafalgar-studios/,100023000000,E09000033,St. James's,E05000644,-0.12911301234742875,51.50697185527061,529714.7442034902,180438.08194449806,11/20/2022
Apollo Victoria,17 Wilton Rd, Pimlico,NA,City of Westminster,https://www.theapollovictoria.com/,100023000000,E09000033,Warwick,E05000647,-0.14425831465409358,51.49628760576857,528694.0801079606,179223.44374793553,11/20/2022
Her Majesty's Theatre,Haymarket, St. James's,NA,City of Westminster,http://www.reallyusefultheatres.co.uk/our-theatres/her-majestys,100023000000,E09000033,St. James's,E05000644,-0.1336126049007627,51.508634620890895,529397.8512102274,180614.97491437988,11/20/2022
Streatham Space Project,Sternhold Avenue,NA,NA,Lambeth,https://www.streathamspaceproject.co.uk/,100023000000,E09000022,Streatham Hill,E05000430,-0.12847473262437734,51.43917353860401,529951.7867461583,172901.47311994998,11/20/2022
Omnibus Theatre,1 Clapham Common North Side,NA,NA,Lambeth,https://omnibus-clapham.org/,100023000000,E09000022,Clapham Town,E05000419,-0.14454540532480598,51.4636699274074,528766.1221951983,175596.54236907285,11/20/2022
The Mary Wallace Theatre,The Embankment, Twickenham,NA,Richmond upon Thames,http://www.richmondshakespeare.org.uk/,100023000000,E09000027,Twickenham Riverside,E05000531,-0.32766426095161283,51.44699382936108,516091.51527351217,173435.9927311992,11/20/2022
St Mary's University ,Waldegrave Road, Twickenham,NA,Richmond upon Thames,NA,100023000000,E09000027,South Twickenham,E05000529,-0.33304484893455893,51.43617233565898,515745.0738159118,172224.3601402864,11/20/2022
Paul Robeson Theatre (The Arts Centre Hounslow),Treaty Centre, High St, Hounslow,Hounslow,http://www.hounslowartscentre.co.uk/,100023000000,E09000018,Hounslow Central,E05000358,-0.3646055759918872,51.46864495920792,513471.3419139311,175785.2268686553,11/20/2022
Isleworth Public Hall,South Street, Isleworth,NA,Hounslow,http://www.fusion-lifestyle.com/centres/isleworth-public-hall,100023000000,E09000018,Isleworth,E05000362,-0.32722502744674237,51.46928924053546,516065.39764897793,175915.50106465427,11/20/2022
Watermans Art Centre,40 High St, Brentford,NA,Hounslow,https://www.watermans.org.uk/,100023000000,E09000018,Brentford,E05000347,-0.2996288588843563,51.48627848953497,517937.7375512097,177848.5656712859,11/20/2022
Orange Tree Theatre,1 Clarence St, Richmond,NA,Richmond upon Thames,https://www.orangetreetheatre.co.uk/,100023000000,E09000027,North Richmond,E05000526,-0.30346020715456423,51.46489827440174,517726.9133876301,175465.28498077684,11/20/2022
Compass Theatre,Glebe Ave, Ickenham,NA,Hillingdon,http://www.hillingdontheatres.uk/,100023000000,E09000017,Ickenham,E05000333,-0.44144299583230084,51.5613488710283,507916.23862520634,185976.0356415448,11/20/2022
Peacock Theatre,Portugal St,NA,NA,Camden,http://peacocktheatre.com/,100023000000,E09000007,Holborn and Covent Garden,E05000138,-0.11959911469046225,51.515137268077986,530351.493382945,181362.8360726792,11/20/2022
Aldwych Theatre,49 Aldwych,NA,NA,City of Westminster,https://www.nederlander.co.uk/aldwych-theatre,100023000000,E09000033,St. James's,E05000644,-0.1204699953287099,51.51358639460768,530295.5105237234,181188.85703011317,11/20/2022
Fortune Theatre,Russell St,NA,NA,City of Westminster,https://www.londontheatredirect.com/venue/52/fortune-theatre.aspx,100023000000,E09000033,St. James's,E05000644,-0.1223218172608624,51.513759345414734,530166.5575191171,181204.7867060348,11/20/2022
Duchess Theatre,3-5 Catherine St,NA,NA,City of Westminster,https://www.nimaxtheatres.com/theatres/duchess-theatre/,100023000000,E09000033,St. James's,E05000644,-0.12134189119420632,51.51270146029003,530237.5527728348,181088.91617281706,11/20/2022
Adelphi Theatre,Strand, London,NA,City of Westminster,http://www.reallyusefultheatres.co.uk/our-theatres/adelphi,100023000000,E09000033,St. James's,E05000644,-0.1244245447812526,51.51063759528034,530029.5860213445,180853.96791077795,11/20/2022
Iris Theatre,St Paul's Church, Bedford Street, Covent Garden,City of Westminster,http://iristheatre.com/,100023000000,E09000033,St. James's,E05000644,-0.12533318606771207,51.51209234480673,529962.4079357954,181014.09144751716,11/20/2022
Wyndham's Theatre,Charing Cross Rd,NA,NA,City of Westminster,https://www.delfontmackintosh.co.uk/theatres/wyndhams-theatre/,100023000000,E09000033,St. James's,E05000644,-0.1298180350542819,51.511568413584925,529652.7743413138,180947.87719733932,11/20/2022
Garrick Theatre,2 Charing Cross Rd,NA,NA,City of Westminster,https://www.nimaxtheatres.com/theatres/garrick-theatre/,100023000000,E09000033,St. James's,E05000644,-0.12938805369313983,51.510455525244765,529685.7649876705,180824.9087705749,11/20/2022
Arts Theatre,6-7 Great Newport St, London,NA,City of Westminster,https://artstheatrewestend.co.uk/,100023000000,E09000033,St. James's,E05000644,-0.12905413192893792,51.51264432776856,529702.7109625954,181068.85258965153,11/20/2022
Leicester Square Theatre,6 Leicester Pl,NA,NA,City of Westminster,http://www.leicestersquaretheatre.com/,100023000000,E09000033,St. James's,E05000644,-0.13167985723709952,51.511850354877566,529522.8149348813,180975.92314803292,11/20/2022
Duke of York's Theatre,St Martin's Ln,NA,NA,City of Westminster,http://www.atgtickets.com/venues/duke-of-yorks/,100023000000,E09000033,St. James's,E05000644,-0.12878711841979462,51.5107165109118,529726.712728149,180854.99137889018,11/20/2022
London Coliseum ,St Martin's Ln,NA,NA,City of Westminster,https://www.eno.org/,100023000000,E09000033,St. James's,E05000644,-0.1278772016378012,51.51042255432006,529790.6729783464,180823.9242767066,11/20/2022
NoÃ«l Coward Theatre,85-88 St Martin's Ln,NA,NA,City of Westminster,http://www.noelcowardtheatre.co.uk/,100023000000,E09000033,St. James's,E05000644,-0.128820127726811,51.51131045526986,529722.7348188784,180920.96762796305,11/20/2022
Playhouse theatre,Northumberland Ave,NA,NA,City of Westminster,https://www.playhousetheatrelondon.com/,100023000000,E09000033,St. James's,E05000644,-0.12528839633683034,51.5074768743501,529978.6565750008,180501.02250240633,11/20/2022
Prince Edward Theatre,Old Compton St, Soho,NA,City of Westminster,http://www.princeedwardtheatre.co.uk/,100023000000,E09000033,West End,E05000649,-0.13253282091334742,51.514264114387764,529456.7968960282,181242.77457868383,11/20/2022
Prince of Wales Theatre,Coventry St,NA,NA,City of Westminster,https://www.delfontmackintosh.co.uk/theatres/prince-of-wales-theatre/,100023000000,E09000033,St. James's,E05000644,-0.13337766385438113,51.510510449544526,529408.8329880796,180823.9456632043,11/20/2022
Queen's Theatre ,51 Shaftesbury Ave, Soho,NA,City of Westminster,http://www.queenstheatre.co.uk/,100023000000,E09000033,West End,E05000649,-0.1345065921469717,51.51251524158,529324.8344481246,181044.8411602932,11/20/2022
Lyric Theatre,29 Shaftesbury Ave, Soho,NA,City of Westminster,https://www.nimaxtheatres.com/theatres/lyric-theatre/,100023000000,E09000033,West End,E05000649,-0.13540049085214792,51.51178329476097,529264.8964639279,180961.88225134736,11/20/2022
Canal CafÃ© Theatre,2 Delamere Terrace,NA,NA,City of Westminster,https://canalcafetheatre.com/,100023000000,E09000033,Westbourne,E05000648,-0.18627770541574026,51.52168049755769,525708.1488199685,181973.53134589834,11/20/2022
Brookside Theatre,21A Eastern Rd, Romford,NA,Havering,http://www.brooksidetheatre.com/,100024000000,E09000016,Romford Town,E05000319,0.18360228075900625,51.57665761575345,551178.7654769069,188786.51713615225,11/20/2022
Laban Theatre,Laban Building, 30 Creekside,NA,Lewisham,https://www.trinitylaban.ac.uk/whats-on/our-venues/laban-theatre,100024000000,E09000023,New Cross,E05000449,-0.02168121540413649,51.47906871834874,537252.0744281212,177531.87311555585,11/20/2022
Sydenham Centre,44a Sydenham Road,NA,NA,Lewisham,https://www.lewisham.gov.uk/inmyarea/Pages/venue-detail.aspx?directoryid=5081,100024000000,E09000023,Sydenham,E05000452,-0.053283625983285635,51.426411386665166,535213.8729623631,171618.73775043047,11/20/2022
South London Theatre,The Old Fire Station, 2A Norwood High Street,NA,Croydon,http://www.southlondontheatre.co.uk/,100024000000,E09000008,South Norwood,E05011485,-0.07717903059696904,51.400919102494306,533627.5091073987,168740.7762694927,11/20/2022
Theatre Royal Haymarket,18 Suffolk St,NA,NA,City of Westminster,http://www.trh.co.uk/,100024000000,E09000033,St. James's,E05000644,-0.13284869232864002,51.50934256806414,529448.8417004315,180695.03687751933,11/20/2022
Savoy Theatre,Savoy Court, Strand,NA,City of Westminster,http://www.atg.co.uk/venues/london/savoy-theatre/,100024000000,E09000033,St. James's,E05000644,-0.12247673659403584,51.510678625900724,530164.596134892,180861.99593229056,11/20/2022
The Albany,Douglas Way,NA,NA,Lewisham,https://www.thealbany.org.uk/,100024000000,E09000023,New Cross,E05000449,-0.029025428427221285,51.47839272901002,536744.2583966389,177442.97015710623,11/20/2022
London Theatre Workshop,88 Gracechurch Street Leadenhall Market,NA,NA,City and County of the City of London,http://londontheatreworkshop.co.uk/,200000000000,E09000001,Cornhill,E05009301,-0.08576441669209044,51.51334896595911,532703.7000459081,181224.88174840284,11/20/2022
Harrow Arts Centre,171 Uxbridge road, Hatch End,NA,Harrow,https://harrowarts.com/,200000000000,E09000015,Hatch End,E05000291,-0.3640872283515281,51.60897493234853,513158.4273770096,191388.45758166607,11/20/2022
Above The Stag Theatre,72 Albert Embankment, Vauxhall,NA,Wandsworth,http://www.abovethestag.com/,200000000000,E09000032,Queenstown,E05000620,-0.12738245267705625,51.48312519057925,529902.638002836,177789.89277203818,11/20/2022
Ovalhouse,52-54 Kennington Oval, London,NA,Lambeth,http://www.ovalhouse.com/,200000000000,E09000022,Oval,E05000426,-0.11875235766670912,51.484273221589945,530498.4217624071,177932.89326832263,11/20/2022
The Old Vic,The Cut, Lambeth,NA,Lambeth,https://www.oldvictheatre.com/,200000000000,E09000022,Bishop's,E05000416,-0.1106267361802584,51.50244960180335,531010.2893590736,179968.2595818375,11/20/2022
National Theatre,Upper Ground, Lambeth,NA,Lambeth,NA,200001000000,E09000022,Bishop's,E05000416,-0.11566833815977796,51.507377052777706,530646.3699257158,180507.07093142404,11/20/2022
Walthamstow Assembly Hall,Town Hall, Forest Rd, Walthamstow,Waltham Forest,http://www.forestvenues.london/venues/walthamstow-assembly-hall-wah17,200001000000,E09000031,Chapel End,E05000592,-0.015091780305388151,51.59167048731068,537369.7901174449,190063.057036924,11/20/2022
Ye Olde Rose and Crown,53 Hoe Street, Walthamstow,NA,Waltham Forest,http://www.yeolderoseandcrowntheatrepub.co.uk/,200001000000,E09000031,William Morris,E05000608,-0.0219549590383679,51.587486606512066,536907.1109312952,189585.0299256277,11/20/2022
Victoria Palace,Victoria St, Westminster,NA,City of Westminster,http://www.victoriapalacetheatre.co.uk/,200002000000,E09000033,St. James's,E05000644,-0.14394937226188534,51.4975144949599,528712.0611476657,179360.39296899847,11/20/2022
Andrew Lloyd Webber Foundation Theatre,Arts Ed, 14 Bath Rd, Chiswick,Hounslow,http://www.reallyusefultheatres.co.uk/our-group/andrew-lloyd-webber,200003000000,E09000018,Chiswick Homefields,E05000348,-0.2540036758023545,51.496470580233506,521077.65496072697,179056.33520552283,11/20/2022
Union Theatre,Old Union Arches, 229 Union St,NA,Southwark,http://www.uniontheatre.biz/,200003000000,E09000028,Borough & Bankside,E05011095,-0.10337947810822057,51.503860599984975,531509.0851294284,180138.14491707587,11/20/2022
LSMT,London School of Musical Theatre, 83 Borough Rd,NA,Southwark,https://www.lsmt.co.uk/,200003000000,E09000028,St. George's,E05011114,-0.10028968462705586,51.49951305784285,531736.011227761,179660.34808189672,11/20/2022
Southwark Playhouse,77-85 Newington Causeway, London,NA,Southwark,http://southwarkplayhouse.co.uk/,200003000000,E09000028,St. George's,E05011114,-0.09978170345679611,51.498210191210504,531775.0205560003,179516.41153435636,11/20/2022
The Calder Bookshop & Theatre,51 The Cut,NA,NA,Lambeth,http://calderbookshop.com/,200003000000,E09000022,Bishop's,E05000416,-0.10831998476935922,51.50354554098729,531167.1977048485,180094.24171898043,11/20/2022
Shakespeares Globe,21 New Globe Walk,NA,NA,Southwark,http://www.shakespearesglobe.com/,200003000000,E09000028,Borough & Bankside,E05011095,-0.0981810966698339,51.50862324904411,531856.0121425901,180677.01912720065,11/20/2022
The Rose Playhouse,56 Park St,NA,NA,Southwark,http://www.roseplayhouse.org.uk/,200003000000,E09000028,Borough & Bankside,E05011095,-0.09786911044328343,51.50781832827308,531879.9823717175,180588.09059789247,11/20/2022
The MCT,Alleyn's School, Townley Road,NA,Southwark,https://mct.alleyns.org.uk/,200003000000,E09000028,Goose Green,E05011103,-0.08357669201920563,51.45529877946817,533024.4403074962,174774.89962957008,11/20/2022
"The Old Library, Theatre Deli",39 Wells Way,NA,NA,Southwark,https://www.theatredeli.co.uk/about-the-old-library,200003000000,E09000028,Faraday,E05011102,-0.08717436067960137,51.48312387788948,532693.7119535195,177861.9293000287,11/20/2022
Greenwood Theatre,55 Weston St,NA,NA,Southwark,https://www.kcl.ac.uk/greenwood/index.aspx,200003000000,E09000028,London Bridge & West Bermondsey,E05011104,-0.08750403497236084,51.50311794932499,532612.7428040747,180084.25083071907,11/20/2022
Menier Chocolate Factory,53 Southwark St,NA,NA,Southwark,https://www.menierchocolatefactory.com/,200004000000,E09000028,Borough & Bankside,E05011095,-0.09607722888139904,51.50517260421037,532011.9503969132,180297.1728063487,11/20/2022
Chiswick House,Chiswick House and Gardens, Burlington Lane, Chiswick,Hounslow,http://chiswickhouseandgardens.org.uk/,200004000000,E09000018,Chiswick Riverside,E05000349,-0.25892266672951636,51.48660866624159,520762.37317073415,177951.7322174189,11/20/2022
Old Sorting Office Barnes,49 Station Rd,NA,NA,Richmond upon Thames,http://www.osoarts.org.uk/,,E09000027,Mortlake and Barnes Common,E05000525,-0.24842813211950596,51.47279382625401,521527.5836781624,176433.1620613489,11/20/2022
